BRITE-PL2 (HEWELIUSZ)   
1 40119U 14049B   26068.87400651  .00002742  00000+0  26097-3 0  9997
2 40119  97.8982 180.2053 0015445  80.5248 279.7716 14.94186201626611
STARLINK-34644          
1 64812U 25150Y   26068.62047919  .00001725  00000+0  15232-3 0  9994
2 64812  70.0020 134.6954 0003351 269.5227  90.5548 14.98332521 36502
